*******************************************************************************
Ephemeris / WWW_USER Fri Mar  7 11:05:39 2025 Pasadena, USA      / Horizons    
*******************************************************************************
Target body name: (2018 US2)                      {source: JPL#14}
Center body name: Earth (399)                     {source: DE441}
Center-site name: Mauna Kea
*******************************************************************************
Start time      : A.D. 2019-Jan-27 04:20:00.0000 UT      
Stop  time      : A.D. 2019-Jan-27 16:48:00.0000 UT      
Step-size       : 1 minutes
*******************************************************************************
Target pole/equ : undefined
Target radii    : undefined                                                    
Center geodetic : 204.5278, 19.8260847, 4.21024   {E-lon(deg),Lat(deg),Alt(km)}
Center cylindric: 204.5278, 6006.35451, 2151.0229 {E-lon(deg),Dxy(km),Dz(km)}
Center pole/equ : ITRF93                          {East-longitude positive}
Center radii    : 6378.137, 6378.137, 6356.752 km {Equator_a, b, pole_c}       
Target primary  : Sun
Vis. interferer : MOON (R_eq= 1737.400) km        {source: DE441}
Rel. light bend : Sun                             {source: DE441}
Rel. lght bnd GM: 1.3271E+11 km^3/s^2                                          
Small-body perts: Yes                             {source: SB441-N16}
Atmos refraction: NO (AIRLESS)
RA format       : HMS
Time format     : CAL 
Calendar mode   : Mixed Julian/Gregorian
RTS-only print  : NO       
EOP file        : eop.250306.p250602                                           
EOP coverage    : DATA-BASED 1962-JAN-20 TO 2025-MAR-06. PREDICTS-> 2025-JUN-01
Units conversion: 1 au= 149597870.700 km, c= 299792.458 km/s, 1 day= 86400.0 s 
Table cut-offs 1: Elevation (-90.0deg=NO ),Airmass (>38.000=NO), Daylight (YES)
Table cut-offs 2: Solar elongation (  0.0,180.0=NO ),Local Hour Angle( 0.0=NO )
Table cut-offs 3: RA/DEC angular rate (     0.0=NO )                           
*******************************************************************************
Initial IAU76/J2000 heliocentric ecliptic osculating elements (au, days, deg.):
  EPOCH=  2458424.5 ! 2018-Nov-02.00 (TDB)         Residual RMS= .2503         
   EC= .6580934192644969   QR= 1.019516546973241   TP= 2458405.4003266119      
   OM= 225.9089147719754   W=  151.3321843630243   IN= 7.044798776353047       
  Equivalent ICRF heliocentric cartesian coordinates (au, au/d):
   X= 8.026033061055595E-01  Y= 6.200562709856074E-01  Z= 2.826199844552283E-01
  VX=-1.102263624249032E-02 VY= 1.780430100977025E-02 VZ= 4.937770740848229E-03
Asteroid physical parameters (km, seconds, rotational period in hours):        
   GM= n.a.                RAD= n.a.               ROTPER= n.a.                
   H= 24.88                G= .150                 B-V= n.a.                   
                           ALBEDO= n.a.            STYP= n.a.                  
*******************************************************************************
 Date__(UT)__HR:MN     R.A._________(ICRF)_________DEC
******************************************************
$$SOE
 2019-Jan-27 12:32  m  05 27 02.363839 +10 53 20.19655
 2019-Jan-27 12:33  m  05 27 02.400069 +10 53 20.46044
 2019-Jan-27 12:34  m  05 27 02.436312 +10 53 20.72432
 2019-Jan-27 12:35  m  05 27 02.472568 +10 53 20.98819
 2019-Jan-27 12:36  m  05 27 02.508837 +10 53 21.25206
 2019-Jan-27 12:37  m  05 27 02.545119 +10 53 21.51591
 2019-Jan-27 12:38  m  05 27 02.581414 +10 53 21.77976
 2019-Jan-27 12:39  m  05 27 02.617722 +10 53 22.04360
 2019-Jan-27 12:40  m  05 27 02.654043 +10 53 22.30744
 2019-Jan-27 12:41  m  05 27 02.690377 +10 53 22.57126
 2019-Jan-27 12:42  m  05 27 02.726724 +10 53 22.83508
 2019-Jan-27 12:43  m  05 27 02.763084 +10 53 23.09889
 2019-Jan-27 12:44  m  05 27 02.799457 +10 53 23.36269
 2019-Jan-27 12:45  m  05 27 02.835843 +10 53 23.62649
 2019-Jan-27 12:46  m  05 27 02.872243 +10 53 23.89028
 2019-Jan-27 12:47  m  05 27 02.908655 +10 53 24.15406
 2019-Jan-27 12:48  m  05 27 02.945080 +10 53 24.41784
 2019-Jan-27 12:49  m  05 27 02.981519 +10 53 24.68161
 2019-Jan-27 12:50  m  05 27 03.017971 +10 53 24.94537
 2019-Jan-27 12:51  m  05 27 03.054435 +10 53 25.20913
 2019-Jan-27 12:52  m  05 27 03.090913 +10 53 25.47288
 2019-Jan-27 12:53  m  05 27 03.127404 +10 53 25.73662
 2019-Jan-27 12:54  m  05 27 03.163908 +10 53 26.00036
 2019-Jan-27 12:55  m  05 27 03.200426 +10 53 26.26410
 2019-Jan-27 12:56  m  05 27 03.236956 +10 53 26.52783
 2019-Jan-27 12:57  m  05 27 03.273500 +10 53 26.79155
 2019-Jan-27 12:58  m  05 27 03.310056 +10 53 27.05527
 2019-Jan-27 12:59  m  05 27 03.346626 +10 53 27.31898
 2019-Jan-27 13:00  m  05 27 03.383210 +10 53 27.58269
 2019-Jan-27 13:01  m  05 27 03.419806 +10 53 27.84639
 2019-Jan-27 13:02  m  05 27 03.456415 +10 53 28.11009
 2019-Jan-27 13:03  m  05 27 03.493038 +10 53 28.37379
 2019-Jan-27 13:04  m  05 27 03.529674 +10 53 28.63748
 2019-Jan-27 13:05  m  05 27 03.566323 +10 53 28.90117
 2019-Jan-27 13:06  m  05 27 03.602985 +10 53 29.16485
 2019-Jan-27 13:07  m  05 27 03.639661 +10 53 29.42853
 2019-Jan-27 13:08  m  05 27 03.676349 +10 53 29.69221
 2019-Jan-27 13:09  m  05 27 03.713051 +10 53 29.95588
 2019-Jan-27 13:10  m  05 27 03.749766 +10 53 30.21955
 2019-Jan-27 13:11  m  05 27 03.786495 +10 53 30.48322
 2019-Jan-27 13:12  m  05 27 03.823236 +10 53 30.74689
 2019-Jan-27 13:13  m  05 27 03.859991 +10 53 31.01055
 2019-Jan-27 13:14  m  05 27 03.896759 +10 53 31.27421
 2019-Jan-27 13:15  m  05 27 03.933540 +10 53 31.53786
 2019-Jan-27 13:16  m  05 27 03.970335 +10 53 31.80152
 2019-Jan-27 13:17  m  05 27 04.007142 +10 53 32.06517
 2019-Jan-27 13:18  m  05 27 04.043963 +10 53 32.32882
 2019-Jan-27 13:19  m  05 27 04.080798 +10 53 32.59247
 2019-Jan-27 13:20  m  05 27 04.117645 +10 53 32.85612
 2019-Jan-27 13:21  m  05 27 04.154506 +10 53 33.11976
 2019-Jan-27 13:22  m  05 27 04.191380 +10 53 33.38341
 2019-Jan-27 13:23  m  05 27 04.228267 +10 53 33.64705
 2019-Jan-27 13:24  m  05 27 04.265167 +10 53 33.91069
 2019-Jan-27 13:25  m  05 27 04.302081 +10 53 34.17433
 2019-Jan-27 13:26  m  05 27 04.339008 +10 53 34.43797
 2019-Jan-27 13:27  m  05 27 04.375948 +10 53 34.70161
 2019-Jan-27 13:28  m  05 27 04.412901 +10 53 34.96525
 2019-Jan-27 13:29  m  05 27 04.449868 +10 53 35.22889
 2019-Jan-27 13:30  m  05 27 04.486847 +10 53 35.49253
 2019-Jan-27 13:31  m  05 27 04.523840 +10 53 35.75617
 2019-Jan-27 13:32  m  05 27 04.560847 +10 53 36.01981
 2019-Jan-27 13:33  m  05 27 04.597866 +10 53 36.28345
 2019-Jan-27 13:34  m  05 27 04.634899 +10 53 36.54709
 2019-Jan-27 13:35  m  05 27 04.671945 +10 53 36.81073
 2019-Jan-27 13:36  m  05 27 04.709004 +10 53 37.07437
 2019-Jan-27 13:37  m  05 27 04.746076 +10 53 37.33802
 2019-Jan-27 13:38  m  05 27 04.783162 +10 53 37.60166
 2019-Jan-27 13:39  m  05 27 04.820261 +10 53 37.86531
 2019-Jan-27 13:40  m  05 27 04.857373 +10 53 38.12895
 2019-Jan-27 13:41  m  05 27 04.894498 +10 53 38.39260
 2019-Jan-27 13:42  m  05 27 04.931636 +10 53 38.65625
 2019-Jan-27 13:43  m  05 27 04.968788 +10 53 38.91990
 2019-Jan-27 13:44  m  05 27 05.005953 +10 53 39.18356
 2019-Jan-27 13:45  m  05 27 05.043131 +10 53 39.44722
 2019-Jan-27 13:46  m  05 27 05.080322 +10 53 39.71087
 2019-Jan-27 13:47  m  05 27 05.117526 +10 53 39.97454
 2019-Jan-27 13:48  m  05 27 05.154743 +10 53 40.23820
 2019-Jan-27 13:49  m  05 27 05.191974 +10 53 40.50187
 2019-Jan-27 13:50  m  05 27 05.229218 +10 53 40.76554
 2019-Jan-27 13:51  m  05 27 05.266475 +10 53 41.02921
 2019-Jan-27 13:52  s  05 27 05.303745 +10 53 41.29289
 2019-Jan-27 13:53  m  05 27 05.341028 +10 53 41.55657
 2019-Jan-27 13:54  m  05 27 05.378324 +10 53 41.82025
 2019-Jan-27 13:55  m  05 27 05.415634 +10 53 42.08394
 2019-Jan-27 13:56  m  05 27 05.452956 +10 53 42.34763
 2019-Jan-27 13:57  m  05 27 05.490292 +10 53 42.61133
 2019-Jan-27 13:58  m  05 27 05.527640 +10 53 42.87503
 2019-Jan-27 13:59  m  05 27 05.565002 +10 53 43.13873
 2019-Jan-27 14:00  m  05 27 05.602377 +10 53 43.40244
 2019-Jan-27 14:01  m  05 27 05.639765 +10 53 43.66615
 2019-Jan-27 14:02  m  05 27 05.677166 +10 53 43.92987
 2019-Jan-27 14:03  m  05 27 05.714580 +10 53 44.19360
 2019-Jan-27 14:04  m  05 27 05.752007 +10 53 44.45733
 2019-Jan-27 14:05  m  05 27 05.789447 +10 53 44.72106
 2019-Jan-27 14:06  m  05 27 05.826900 +10 53 44.98480
 2019-Jan-27 14:07  m  05 27 05.864366 +10 53 45.24854
 2019-Jan-27 14:08  m  05 27 05.901845 +10 53 45.51229
 2019-Jan-27 14:09  m  05 27 05.939337 +10 53 45.77605
 2019-Jan-27 14:10  m  05 27 05.976842 +10 53 46.03981
 2019-Jan-27 14:11  m  05 27 06.014360 +10 53 46.30358
 2019-Jan-27 14:12  m  05 27 06.051891 +10 53 46.56736
 2019-Jan-27 14:13  m  05 27 06.089435 +10 53 46.83114
 2019-Jan-27 14:14  m  05 27 06.126992 +10 53 47.09493
 2019-Jan-27 14:15  m  05 27 06.164561 +10 53 47.35873
 2019-Jan-27 14:16  m  05 27 06.202144 +10 53 47.62253
 2019-Jan-27 14:17  m  05 27 06.239739 +10 53 47.88634
 2019-Jan-27 14:18  m  05 27 06.277348 +10 53 48.15015
 2019-Jan-27 14:19  m  05 27 06.314969 +10 53 48.41398
 2019-Jan-27 14:20  m  05 27 06.352603 +10 53 48.67781
 2019-Jan-27 14:21  m  05 27 06.390250 +10 53 48.94165
 2019-Jan-27 14:22  m  05 27 06.427910 +10 53 49.20550
 2019-Jan-27 14:23  m  05 27 06.465582 +10 53 49.46935
 2019-Jan-27 14:24  m  05 27 06.503267 +10 53 49.73322
 2019-Jan-27 14:25  m  05 27 06.540965 +10 53 49.99709
 2019-Jan-27 14:26  m  05 27 06.578676 +10 53 50.26097
 2019-Jan-27 14:27  m  05 27 06.616400 +10 53 50.52486
 2019-Jan-27 14:28  m  05 27 06.654136 +10 53 50.78876
 2019-Jan-27 14:29  m  05 27 06.691885 +10 53 51.05267
 2019-Jan-27 14:30  m  05 27 06.729647 +10 53 51.31658
 2019-Jan-27 14:31  m  05 27 06.767421 +10 53 51.58051
 2019-Jan-27 14:32  m  05 27 06.805208 +10 53 51.84444
 2019-Jan-27 14:33  m  05 27 06.843008 +10 53 52.10839
 2019-Jan-27 14:34  m  05 27 06.880820 +10 53 52.37234
